STARLINK-1679           
1 46557U 20070AB  25213.59115540 -.00001011  00000+0 -49025-4 0  9997
2 46557  53.0539  69.0521 0001352  88.6932 271.4211 15.06389980266555
STARLINK-1680           
1 46558U 20070AC  25212.99506014  .00000260  00000+0  36350-4 0  9991
2 46558  53.0545  72.3591 0001393  90.2812 269.8336 15.06392294266425
STARLINK-1681           
1 46559U 20070AD  25213.53072172  .00061906  00000+0  25241-2 0  9995
2 46559  53.0677  42.5715 0006162  65.6519 294.5121 15.23871408266917
STARLINK-1714           
1 46562U 20070AG  25212.99900058  .00034034  00000+0  17483-2 0  9992
2 46562  53.0565  65.6545 0003041 175.0128 185.0896 15.16204677266541
STARLINK-1730           
1 46563U 20070AH  25212.97211804  .00037415  00000+0  20244-2 0  9990
2 46563  53.0528  64.9869 0002990 138.6040 221.5179 15.14320677266550
STARLINK-1733           
1 46564U 20070AJ  25212.99736725  .00001459  00000+0  11682-3 0  9993
2 46564  53.0540  67.4203 0001316  83.9074 276.2065 15.06390102266524
STARLINK-1735           
1 46565U 20070AK  25213.63133447  .00005344  00000+0  37736-3 0  9993
2 46565  53.0545  64.5036 0001302  93.1408 266.9730 15.06403416266619
STARLINK-1740           
1 46566U 20070AL  25213.61658868 -.00000188  00000+0  62818-5 0  9994
2 46566  53.0546  64.5649 0001182  78.2172 281.8950 15.06408022266291
STARLINK-1741           
1 46567U 20070AM  25212.98261184 -.00000276  00000+0  35979-6 0  9992
2 46567  53.0533  67.4112 0001371 115.7684 244.3446 15.06397737266520
STARLINK-1531           
1 46572U 20070AS  25213.03512201 -.00000285  00000+0 -25004-6 0  9993
2 46572  53.0562  87.1642 0001591  87.1774 272.9397 15.06390398266248
STARLINK-1660           
1 46574U 20070AU  25213.91668981  .00401966  00000+0  25890-2 0  9997
2 46574  53.0363  20.1802 0006570 286.8407 231.1993 15.74449048267261
STARLINK-1675           
1 46575U 20070AV  25212.74948514  .00079301  00000+0  12402-2 0  9990
2 46575  53.0498  15.5470 0002552 140.2590 219.8607 15.53096490267230
STARLINK-1677           
1 46576U 20070AW  25212.99136798 -.00000858  00000+0 -38688-4 0  9990
2 46576  53.0538  72.3762 0001574 106.6369 253.4793 15.06391722266451
STARLINK-1683           
1 46578U 20070AY  25213.49521709  .00060488  00000+0  24787-2 0  9994
2 46578  53.0290  42.1493 0003013  33.4060 326.7126 15.23723224266627
STARLINK-1705           
1 46579U 20070AZ  25213.61290463  .00080401  00000+0  25615-2 0  9997
2 46579  53.0531  67.5814 0000759 147.3428 212.7620 15.31864759266576
STARLINK-1712           
1 46581U 20070BB  25213.20790002  .00063935  00000+0  22151-2 0  9994
2 46581  53.0557  62.8301 0002901 208.8744 151.2094 15.29260921266605
STARLINK-1728           
1 46582U 20070BC  25213.00104364 -.00000671  00000+0 -26170-4 0  9990
2 46582  53.0533  67.3271 0001116  90.2215 269.8902 15.06397625266521
