[{"OBJECT_NAME":"STARLINK-1679","OBJECT_ID":"2020-070AB","EPOCH":"2025-08-01T14:11:15.826560","MEAN_MOTION":15.0638998,"ECCENTRICITY":0.0001352,"INCLINATION":53.0539,"RA_OF_ASC_NODE":69.0521,"ARG_OF_PERICENTER":88.6932,"MEAN_ANOMALY":271.4211,"EPHEMERIS_TYPE":0,"CLASSIFICATION_TYPE":"U","NORAD_CAT_ID":46557,"ELEMENT_SET_NO":999,"REV_AT_EPOCH":26655,"BSTAR":-4.9025e-5,"MEAN_MOTION_DOT":-1.011e-5,"MEAN_MOTION_DDOT":0},{"OBJECT_NAME":"STARLINK-1680","OBJECT_ID":"2020-070AC","EPOCH":"2025-07-31T23:52:53.196096","MEAN_MOTION":15.06392294,"ECCENTRICITY":0.0001393,"INCLINATION":53.0545,"RA_OF_ASC_NODE":72.3591,"ARG_OF_PERICENTER":90.2812,"MEAN_ANOMALY":269.8336,"EPHEMERIS_TYPE":0,"CLASSIFICATION_TYPE":"U","NORAD_CAT_ID":46558,"ELEMENT_SET_NO":999,"REV_AT_EPOCH":26642,"BSTAR":3.635e-5,"MEAN_MOTION_DOT":2.6e-6,"MEAN_MOTION_DDOT":0},{"OBJECT_NAME":"STARLINK-1681","OBJECT_ID":"2020-070AD","EPOCH":"2025-08-01T12:44:14.356608","MEAN_MOTION":15.23871408,"ECCENTRICITY":0.0006162,"INCLINATION":53.0677,"RA_OF_ASC_NODE":42.5715,"ARG_OF_PERICENTER":65.6519,"MEAN_ANOMALY":294.5121,"EPHEMERIS_TYPE":0,"CLASSIFICATION_TYPE":"U","NORAD_CAT_ID":46559,"ELEMENT_SET_NO":999,"REV_AT_EPOCH":26691,"BSTAR":0.0025241,"MEAN_MOTION_DOT":0.00061906,"MEAN_MOTION_DDOT":0},{"OBJECT_NAME":"STARLINK-1714","OBJECT_ID":"2020-070AG","EPOCH":"2025-07-31T23:58:33.650112","MEAN_MOTION":15.16204677,"ECCENTRICITY":0.0003041,"INCLINATION":53.0565,"RA_OF_ASC_NODE":65.6545,"ARG_OF_PERICENTER":175.0128,"MEAN_ANOMALY":185.0896,"EPHEMERIS_TYPE":0,"CLASSIFICATION_TYPE":"U","NORAD_CAT_ID":46562,"ELEMENT_SET_NO":999,"REV_AT_EPOCH":26654,"BSTAR":0.0017483,"MEAN_MOTION_DOT":0.00034034,"MEAN_MOTION_DDOT":0},{"OBJECT_NAME":"STARLINK-1730","OBJECT_ID":"2020-070AH","EPOCH":"2025-07-31T23:19:50.998656","MEAN_MOTION":15.14320677,"ECCENTRICITY":0.000299,"INCLINATION":53.0528,"RA_OF_ASC_NODE":64.9869,"ARG_OF_PERICENTER":138.604,"MEAN_ANOMALY":221.5179,"EPHEMERIS_TYPE":0,"CLASSIFICATION_TYPE":"U","NORAD_CAT_ID":46563,"ELEMENT_SET_NO":999,"REV_AT_EPOCH":26655,"BSTAR":0.0020244,"MEAN_MOTION_DOT":0.00037415,"MEAN_MOTION_DDOT":0},{"OBJECT_NAME":"STARLINK-1733","OBJECT_ID":"2020-070AJ","EPOCH":"2025-07-31T23:56:12.530400","MEAN_MOTION":15.06390102,"ECCENTRICITY":0.0001316,"INCLINATION":53.054,"RA_OF_ASC_NODE":67.4203,"ARG_OF_PERICENTER":83.9074,"MEAN_ANOMALY":276.2065,"EPHEMERIS_TYPE":0,"CLASSIFICATION_TYPE":"U","NORAD_CAT_ID":46564,"ELEMENT_SET_NO":999,"REV_AT_EPOCH":26652,"BSTAR":0.00011682,"MEAN_MOTION_DOT":1.459e-5,"MEAN_MOTION_DDOT":0},{"OBJECT_NAME":"STARLINK-1735","OBJECT_ID":"2020-070AK","EPOCH":"2025-08-01T15:09:07.298208","MEAN_MOTION":15.06403416,"ECCENTRICITY":0.0001302,"INCLINATION":53.0545,"RA_OF_ASC_NODE":64.5036,"ARG_OF_PERICENTER":93.1408,"MEAN_ANOMALY":266.973,"EPHEMERIS_TYPE":0,"CLASSIFICATION_TYPE":"U","NORAD_CAT_ID":46565,"ELEMENT_SET_NO":999,"REV_AT_EPOCH":26661,"BSTAR":0.00037736,"MEAN_MOTION_DOT":5.344e-5,"MEAN_MOTION_DDOT":0},{"OBJECT_NAME":"STARLINK-1740","OBJECT_ID":"2020-070AL","EPOCH":"2025-08-01T14:47:53.261952","MEAN_MOTION":15.06408022,"ECCENTRICITY":0.0001182,"INCLINATION":53.0546,"RA_OF_ASC_NODE":64.5649,"ARG_OF_PERICENTER":78.2172,"MEAN_ANOMALY":281.895,"EPHEMERIS_TYPE":0,"CLASSIFICATION_TYPE":"U","NORAD_CAT_ID":46566,"ELEMENT_SET_NO":999,"REV_AT_EPOCH":26629,"BSTAR":6.2818e-6,"MEAN_MOTION_DOT":-1.88e-6,"MEAN_MOTION_DDOT":0},{"OBJECT_NAME":"STARLINK-1741","OBJECT_ID":"2020-070AM","EPOCH":"2025-07-31T23:34:57.662976","MEAN_MOTION":15.06397737,"ECCENTRICITY":0.0001371,"INCLINATION":53.0533,"RA_OF_ASC_NODE":67.4112,"ARG_OF_PERICENTER":115.7684,"MEAN_ANOMALY":244.3446,"EPHEMERIS_TYPE":0,"CLASSIFICATION_TYPE":"U","NORAD_CAT_ID":46567,"ELEMENT_SET_NO":999,"REV_AT_EPOCH":26652,"BSTAR":3.5979e-7,"MEAN_MOTION_DOT":-2.76e-6,"MEAN_MOTION_DDOT":0},{"OBJECT_NAME":"STARLINK-1531","OBJECT_ID":"2020-070AS","EPOCH":"2025-08-01T00:50:34.541664","MEAN_MOTION":15.06390398,"ECCENTRICITY":0.0001591,"INCLINATION":53.0562,"RA_OF_ASC_NODE":87.1642,"ARG_OF_PERICENTER":87.1774,"MEAN_ANOMALY":272.9397,"EPHEMERIS_TYPE":0,"CLASSIFICATION_TYPE":"U","NORAD_CAT_ID":46572,"ELEMENT_SET_NO":999,"REV_AT_EPOCH":26624,"BSTAR":-2.5004e-7,"MEAN_MOTION_DOT":-2.85e-6,"MEAN_MOTION_DDOT":0},{"OBJECT_NAME":"STARLINK-1660","OBJECT_ID":"2020-070AU","EPOCH":"2025-08-01T22:00:01.999584","MEAN_MOTION":15.74449048,"ECCENTRICITY":0.000657,"INCLINATION":53.0363,"RA_OF_ASC_NODE":20.1802,"ARG_OF_PERICENTER":286.8407,"MEAN_ANOMALY":231.1993,"EPHEMERIS_TYPE":0,"CLASSIFICATION_TYPE":"U","NORAD_CAT_ID":46574,"ELEMENT_SET_NO":999,"REV_AT_EPOCH":26726,"BSTAR":0.002589,"MEAN_MOTION_DOT":0.00401966,"MEAN_MOTION_DDOT":0},{"OBJECT_NAME":"STARLINK-1675","OBJECT_ID":"2020-070AV","EPOCH":"2025-07-31T17:59:15.516096","MEAN_MOTION":15.5309649,"ECCENTRICITY":0.0002552,"INCLINATION":53.0498,"RA_OF_ASC_NODE":15.547,"ARG_OF_PERICENTER":140.259,"MEAN_ANOMALY":219.8607,"EPHEMERIS_TYPE":0,"CLASSIFICATION_TYPE":"U","NORAD_CAT_ID":46575,"ELEMENT_SET_NO":999,"REV_AT_EPOCH":26723,"BSTAR":0.0012402,"MEAN_MOTION_DOT":0.00079301,"MEAN_MOTION_DDOT":0},{"OBJECT_NAME":"STARLINK-1677","OBJECT_ID":"2020-070AW","EPOCH":"2025-07-31T23:47:34.193472","MEAN_MOTION":15.06391722,"ECCENTRICITY":0.0001574,"INCLINATION":53.0538,"RA_OF_ASC_NODE":72.3762,"ARG_OF_PERICENTER":106.6369,"MEAN_ANOMALY":253.4793,"EPHEMERIS_TYPE":0,"CLASSIFICATION_TYPE":"U","NORAD_CAT_ID":46576,"ELEMENT_SET_NO":999,"REV_AT_EPOCH":26645,"BSTAR":-3.8688e-5,"MEAN_MOTION_DOT":-8.58e-6,"MEAN_MOTION_DDOT":0},{"OBJECT_NAME":"STARLINK-1683","OBJECT_ID":"2020-070AY","EPOCH":"2025-08-01T11:53:06.756576","MEAN_MOTION":15.23723224,"ECCENTRICITY":0.0003013,"INCLINATION":53.029,"RA_OF_ASC_NODE":42.1493,"ARG_OF_PERICENTER":33.406,"MEAN_ANOMALY":326.7126,"EPHEMERIS_TYPE":0,"CLASSIFICATION_TYPE":"U","NORAD_CAT_ID":46578,"ELEMENT_SET_NO":999,"REV_AT_EPOCH":26662,"BSTAR":0.0024787,"MEAN_MOTION_DOT":0.00060488,"MEAN_MOTION_DDOT":0},{"OBJECT_NAME":"STARLINK-1705","OBJECT_ID":"2020-070AZ","EPOCH":"2025-08-01T14:42:34.960032","MEAN_MOTION":15.31864759,"ECCENTRICITY":7.59e-5,"INCLINATION":53.0531,"RA_OF_ASC_NODE":67.5814,"ARG_OF_PERICENTER":147.3428,"MEAN_ANOMALY":212.762,"EPHEMERIS_TYPE":0,"CLASSIFICATION_TYPE":"U","NORAD_CAT_ID":46579,"ELEMENT_SET_NO":999,"REV_AT_EPOCH":26657,"BSTAR":0.0025615,"MEAN_MOTION_DOT":0.00080401,"MEAN_MOTION_DDOT":0},{"OBJECT_NAME":"STARLINK-1712","OBJECT_ID":"2020-070BB","EPOCH":"2025-08-01T04:59:22.561728","MEAN_MOTION":15.29260921,"ECCENTRICITY":0.0002901,"INCLINATION":53.0557,"RA_OF_ASC_NODE":62.8301,"ARG_OF_PERICENTER":208.8744,"MEAN_ANOMALY":151.2094,"EPHEMERIS_TYPE":0,"CLASSIFICATION_TYPE":"U","NORAD_CAT_ID":46581,"ELEMENT_SET_NO":999,"REV_AT_EPOCH":26660,"BSTAR":0.0022151,"MEAN_MOTION_DOT":0.00063935,"MEAN_MOTION_DDOT":0},{"OBJECT_NAME":"STARLINK-1728","OBJECT_ID":"2020-070BC","EPOCH":"2025-08-01T00:01:30.170496","MEAN_MOTION":15.06397625,"ECCENTRICITY":0.0001116,"INCLINATION":53.0533,"RA_OF_ASC_NODE":67.3271,"ARG_OF_PERICENTER":90.2215,"MEAN_ANOMALY":269.8902,"EPHEMERIS_TYPE":0,"CLASSIFICATION_TYPE":"U","NORAD_CAT_ID":46582,"ELEMENT_SET_NO":999,"REV_AT_EPOCH":26652,"BSTAR":-2.617e-5,"MEAN_MOTION_DOT":-6.71e-6,"MEAN_MOTION_DDOT":0}]
